{
  "type": "FeatureCollection",
  "features": [
    {
      "type": "Feature",
      "properties": {
        "norad_id": 36439,
        "name": "COSMOS 2251 DEB",
        "group": "cosmos-2251-debris",
        "lat": 14.89897378026328,
        "lon": 54.80081145465633,
        "alt_km": 765.3729314139073,
        "timestamp": "2025-12-04T03:47:54.939321+00:00",
        "meta_object_name": "COSMOS 2251 DEB",
        "meta_object_id": "1993-036BAN",
        "meta_epoch": "2025-11-28T12:20:46.608576",
        "meta_mean_motion": 13.47759109,
        "meta_eccentricity": 0.04273078,
        "meta_inclination": 73.9677,
        "meta_ra_of_asc_node": 59.4166,
        "meta_arg_of_pericenter": 34.2696,
        "meta_mean_anomaly": 328.5204,
        "meta_ephemeris_type": 0,
        "meta_classification_type": "U",
        "meta_norad_cat_id": 36439,
        "meta_element_set_no": 999,
        "meta_rev_at_epoch": 58421,
        "meta_bstar": 0.00064226543,
        "meta_mean_motion_dot": 6.71e-06,
        "meta_mean_motion_ddot": 0,
        "tle_line1": "1 36439U 93036BAN 25332.51442834  .00000671  00000+0  64227-3 0  9999",
        "tle_line2": "2 36439  73.9677  59.4166 0427307  34.2696 328.5204 13.47759109584210"
      },
      "geometry": {
        "type": "Point",
        "coordinates": [
          54.80081145465633,
          14.89897378026328
        ]
      }
    },
    {
      "type": "Feature",
      "properties": {
        "norad_id": 36441,
        "name": "COSMOS 2251 DEB",
        "group": "cosmos-2251-debris",
        "lat": -35.17734906135332,
        "lon": -4.198198860169682,
        "alt_km": 614.4437660355943,
        "timestamp": "2025-12-04T03:47:54.939331+00:00",
        "meta_object_name": "COSMOS 2251 DEB",
        "meta_object_id": "1993-036BAQ",
        "meta_epoch": "2025-12-03T08:50:22.276032",
        "meta_mean_motion": 15.06561199,
        "meta_eccentricity": 0.0108665,
        "meta_inclination": 73.8356,
        "meta_ra_of_asc_node": 9.2398,
        "meta_arg_of_pericenter": 110.653,
        "meta_mean_anomaly": 250.6352,
        "meta_ephemeris_type": 0,
        "meta_classification_type": "U",
        "meta_norad_cat_id": 36441,
        "meta_element_set_no": 999,
        "meta_rev_at_epoch": 86824,
        "meta_bstar": 0.00053695,
        "meta_mean_motion_dot": 9.058e-05,
        "meta_mean_motion_ddot": 0,
        "tle_line1": "1 36441U 93036BAQ 25337.36831338  .00009058  00000+0  53695-3 0  9996",
        "tle_line2": "2 36441  73.8356   9.2398 0108665 110.6530 250.6352 15.06561199868249"
      },
      "geometry": {
        "type": "Point",
        "coordinates": [
          -4.198198860169682,
          -35.17734906135332
        ]
      }
    },
    {
      "type": "Feature",
      "properties": {
        "norad_id": 36442,
        "name": "COSMOS 2251 DEB",
        "group": "cosmos-2251-debris",
        "lat": 0.9993514839760482,
        "lon": -122.72883235943844,
        "alt_km": 495.1671086966935,
        "timestamp": "2025-12-04T03:47:54.939341+00:00",
        "meta_object_name": "COSMOS 2251 DEB",
        "meta_object_id": "1993-036BAR",
        "meta_epoch": "2025-11-30T23:26:58.990560",
        "meta_mean_motion": 15.24721511,
        "meta_eccentricity": 0.00074124,
        "meta_inclination": 73.9503,
        "meta_ra_of_asc_node": 64.3117,
        "meta_arg_of_pericenter": 319.957,
        "meta_mean_anomaly": 40.1082,
        "meta_ephemeris_type": 0,
        "meta_classification_type": "U",
        "meta_norad_cat_id": 36442,
        "meta_element_set_no": 999,
        "meta_rev_at_epoch": 85736,
        "meta_bstar": 0.0052461948,
        "meta_mean_motion_dot": 0.00132297,
        "meta_mean_motion_ddot": 0,
        "tle_line1": "1 36442U 93036BAR 25334.97707165  .00132297  00000+0  52462-2 0  9993",
        "tle_line2": "2 36442  73.9503  64.3117 0007412 319.9570  40.1082 15.24721511857361"
      },
      "geometry": {
        "type": "Point",
        "coordinates": [
          -122.72883235943844,
          0.9993514839760482
        ]
      }
    },
    {
      "type": "Feature",
      "properties": {
        "norad_id": 36451,
        "name": "COSMOS 2251 DEB",
        "group": "cosmos-2251-debris",
        "lat": -4.241870146865073,
        "lon": 171.85129494678057,
        "alt_km": 700.8637831646893,
        "timestamp": "2025-12-04T03:47:54.939351+00:00",
        "meta_object_name": "COSMOS 2251 DEB",
        "meta_object_id": "1993-036BBA",
        "meta_epoch": "2025-12-02T18:46:44.967360",
        "meta_mean_motion": 14.18689973,
        "meta_eccentricity": 0.01846109,
        "meta_inclination": 73.9543,
        "meta_ra_of_asc_node": 353.0964,
        "meta_arg_of_pericenter": 179.7047,
        "meta_mean_anomaly": 180.4241,
        "meta_ephemeris_type": 0,
        "meta_classification_type": "U",
        "meta_norad_cat_id": 36451,
        "meta_element_set_no": 999,
        "meta_rev_at_epoch": 84084,
        "meta_bstar": 0.00098989344,
        "meta_mean_motion_dot": 2.407e-05,
        "meta_mean_motion_ddot": 0,
        "tle_line1": "1 36451U 93036BBA 25336.78246490  .00002407  00000+0  98989-3 0  9997",
        "tle_line2": "2 36451  73.9543 353.0964 0184610 179.7047 180.4241 14.18689973840847"
      },
      "geometry": {
        "type": "Point",
        "coordinates": [
          171.85129494678057,
          -4.241870146865073
        ]
      }
    },
    {
      "type": "Feature",
      "properties": {
        "norad_id": 36453,
        "name": "COSMOS 2251 DEB",
        "group": "cosmos-2251-debris",
        "lat": 61.12385922772801,
        "lon": -42.84965288187272,
        "alt_km": 672.7444257025954,
        "timestamp": "2025-12-04T03:47:54.939362+00:00",
        "meta_object_name": "COSMOS 2251 DEB",
        "meta_object_id": "1993-036BBC",
        "meta_epoch": "2025-12-03T12:32:18.587904",
        "meta_mean_motion": 14.52499194,
        "meta_eccentricity": 0.0070241,
        "meta_inclination": 73.9225,
        "meta_ra_of_asc_node": 169.8873,
        "meta_arg_of_pericenter": 75.794,
        "meta_mean_anomaly": 314.5029,
        "meta_ephemeris_type": 0,
        "meta_classification_type": "U",
        "meta_norad_cat_id": 36453,
        "meta_element_set_no": 999,
        "meta_rev_at_epoch": 84334,
        "meta_bstar": 0.0012059,
        "meta_mean_motion_dot": 5.059e-05,
        "meta_mean_motion_ddot": 0,
        "tle_line1": "1 36453U 93036BBC 25337.52243736  .00005059  00000+0  12059-2 0  9991",
        "tle_line2": "2 36453  73.9225 169.8873 0070241  75.7940 314.5029 14.52499194843343"
      },
      "geometry": {
        "type": "Point",
        "coordinates": [
          -42.84965288187272,
          61.12385922772801
        ]
      }
    },
    {
      "type": "Feature",
      "properties": {
        "norad_id": 36459,
        "name": "COSMOS 2251 DEB",
        "group": "cosmos-2251-debris",
        "lat": 55.53886406224177,
        "lon": 170.67486724032918,
        "alt_km": 717.1221109518801,
        "timestamp": "2025-12-04T03:47:54.939371+00:00",
        "meta_object_name": "COSMOS 2251 DEB",
        "meta_object_id": "1993-036BBJ",
        "meta_epoch": "2025-11-27T21:25:14.011392",
        "meta_mean_motion": 14.2626117,
        "meta_eccentricity": 0.0114133,
        "meta_inclination": 74.0487,
        "meta_ra_of_asc_node": 26.6161,
        "meta_arg_of_pericenter": 126.4072,
        "meta_mean_anomaly": 234.7668,
        "meta_ephemeris_type": 0,
        "meta_classification_type": "U",
        "meta_norad_cat_id": 36459,
        "meta_element_set_no": 999,
        "meta_rev_at_epoch": 7670,
        "meta_bstar": 0.0017749,
        "meta_mean_motion_dot": 4.537e-05,
        "meta_mean_motion_ddot": 0,
        "tle_line1": "1 36459U 93036BBJ 25331.89252328  .00004537  00000+0  17749-2 0  9999",
        "tle_line2": "2 36459  74.0487  26.6161 0114133 126.4072 234.7668 14.26261170 76702"
      },
      "geometry": {
        "type": "Point",
        "coordinates": [
          170.67486724032918,
          55.53886406224177
        ]
      }
    },
    {
      "type": "Feature",
      "properties": {
        "norad_id": 36470,
        "name": "COSMOS 2251 DEB",
        "group": "cosmos-2251-debris",
        "lat": -24.023786938574297,
        "lon": 99.65712409712559,
        "alt_km": 558.1812841249839,
        "timestamp": "2025-12-04T03:47:54.939381+00:00",
        "meta_object_name": "COSMOS 2251 DEB",
        "meta_object_id": "1993-036BBV",
        "meta_epoch": "2025-12-02T03:03:18.136800",
        "meta_mean_motion": 15.05586615,
        "meta_eccentricity": 0.00218493,
        "meta_inclination": 73.8455,
        "meta_ra_of_asc_node": 276.4446,
        "meta_arg_of_pericenter": 104.1241,
        "meta_mean_anomaly": 256.2378,
        "meta_ephemeris_type": 0,
        "meta_classification_type": "U",
        "meta_norad_cat_id": 36470,
        "meta_element_set_no": 999,
        "meta_rev_at_epoch": 65934,
        "meta_bstar": 0.0040110233,
        "meta_mean_motion_dot": 0.00058582,
        "meta_mean_motion_ddot": 0,
        "tle_line1": "1 36470U 93036BBV 25336.12729325  .00058582  00000+0  40110-2 0  9996",
        "tle_line2": "2 36470  73.8455 276.4446 0021849 104.1241 256.2378 15.05586615659346"
      },
      "geometry": {
        "type": "Point",
        "coordinates": [
          99.65712409712559,
          -24.023786938574297
        ]
      }
    }
  ]
}